NORAD_CAT_ID,OBJECT_NAME,OBJECT_TYPE,EPOCH,MEAN_MOTION,ECCENTRICITY,INCLINATION,RA_OF_ASC_NODE,ARG_OF_PERICENTER,MEAN_ANOMALY,BSTAR,MEAN_MOTION_DOT,MEAN_MOTION_DDOT,TLE_LINE0,TLE_LINE1,TLE_LINE2,SEMIMAJOR_AXIS,PERIOD,APOGEE,PERIGEE,DECAYED
52836.0,STARLINK-4043,PAYLOAD,2023-09-26 21:59:59,15.0883591,0.0001388,53.216,90.9125,80.2664,279.8485,1.3002e-05,-8.1e-07,0.0,0 STARLINK-4043,1 52836U 22062G   23269.91666173 -.00000081  00000-0  13002-4 0  9997,2 52836  53.2160  90.9125 0001388  80.2664 279.8485 15.08835910 70702,6917.893,95.438,540.718,538.798,0.0
52836.0,STARLINK-4043,PAYLOAD,2023-09-27 18:40:00,15.08844264,0.0001362,53.2163,87.0462,83.6278,276.4869,9.4619e-05,1.218e-05,0.0,0 STARLINK-4043,1 52836U 22062G   23270.77778001  .00001218  00000-0  94619-4 0  9992,2 52836  53.2163  87.0462 0001362  83.6278 276.4869 15.08844264 70831,6917.867,95.437,540.675,538.79,0.0
52836.0,STARLINK-4043,PAYLOAD,2023-09-27 21:50:46,15.08845887,0.0001389,53.216,86.4514,84.872,275.2431,9.7246e-05,1.26e-05,0.0,0 STARLINK-4043,1 52836U 22062G   23270.91025902  .00001260  00000-0  97246-4 0  9999,2 52836  53.2160  86.4514 0001389  84.8720 275.2431 15.08845887 70859,6917.862,95.437,540.688,538.767,0.0
52836.0,STARLINK-4043,PAYLOAD,2023-09-28 18:30:47,15.08844196,0.0001361,53.2163,82.5845,98.3407,261.7739,0.00022358,3.273e-05,0.0,0 STARLINK-4043,1 52836U 22062G   23271.77138005  .00003273  00000-0  22358-3 0  9990,2 52836  53.2163  82.5845 0001361  98.3407 261.7739 15.08844196 70985,6917.868,95.437,540.674,538.791,0.0
52836.0,STARLINK-4043,PAYLOAD,2023-09-29 15:10:47,15.08843466,0.000138,53.2168,78.718,96.4155,263.6994,0.00013559,1.871e-05,0.0,0 STARLINK-4043,1 52836U 22062G   23272.63249894  .00001871  00000-0  13559-3 0  9990,2 52836  53.2168  78.7180 0001380  96.4155 263.6994 15.08843466 71118,6917.87,95.437,540.689,538.78,0.0
52836.0,STARLINK-4043,PAYLOAD,2023-09-30 18:12:22,15.08800596,0.0001523,53.2176,73.6661,91.4376,268.679,0.00071587,0.00011111,0.0,0 STARLINK-4043,1 52836U 22062G   23273.75859293  .00011111  00000-0  71587-3 0  9997,2 52836  53.2176  73.6661 0001523  91.4376 268.6790 15.08800596 71288,6918.001,95.44,540.919,538.812,0.0
52836.0,STARLINK-4043,PAYLOAD,2023-10-01 03:44:40,15.08845204,0.0001392,53.2181,71.8801,81.1536,278.9613,9.1048e-05,1.162e-05,0.0,0 STARLINK-4043,1 52836U 22062G   23274.15601890  .00001162  00000-0  91048-4 0  9990,2 52836  53.2181  71.8801 0001392  81.1536 278.9613 15.08845204 71348,6917.864,95.437,540.692,538.767,0.0
52836.0,STARLINK-4043,PAYLOAD,2023-10-01 19:38:31,15.08849879,0.0001518,53.2178,68.9042,78.9365,281.1798,0.00011694,1.574e-05,0.0,0 STARLINK-4043,1 52836U 22062G   23274.81841467  .00001574  00000-0  11694-3 0  9994,2 52836  53.2178  68.9042 0001518  78.9365 281.1798 15.08849879 71445,6917.85,95.437,540.765,538.665,0.0
52836.0,STARLINK-4043,PAYLOAD,2023-10-02 03:35:27,15.0883784,0.0001222,53.2176,67.419,87.226,272.8872,5.2569e-05,5.49e-06,0.0,0 STARLINK-4043,1 52836U 22062G   23275.14962022  .00000549  00000-0  52569-4 0  9990,2 52836  53.2176  67.4190 0001222  87.2260 272.8872 15.08837840 71490,6917.887,95.438,540.597,538.907,0.0
52836.0,STARLINK-4043,PAYLOAD,2023-10-02 19:29:18,15.08841929,0.0001465,53.219,64.4442,91.259,268.857,3.5638e-05,2.79e-06,0.0,0 STARLINK-4043,1 52836U 22062G   23275.81202216  .00000279  00000-0  35638-4 0  9994,2 52836  53.2190  64.4442 0001465  91.2590 268.8570 15.08841929 71597,6917.874,95.437,540.753,538.726,0.0
52836.0,STARLINK-4043,PAYLOAD,2023-10-03 09:47:47,15.08835517,0.0001372,53.2182,61.7713,89.8865,270.2285,4.7477e-05,4.68e-06,0.0,0 STARLINK-4043,1 52836U 22062G   23276.40818670  .00000468  00000-0  47477-4 0  9991,2 52836  53.2182  61.7713 0001372  89.8865 270.2285 15.08835517 71680,6917.894,95.438,540.708,538.81,0.0
52836.0,STARLINK-4043,PAYLOAD,2023-10-03 14:33:57,15.08831458,0.0001395,53.2177,60.8785,89.6863,270.4289,7.4812e-08,-2.87e-06,0.0,0 STARLINK-4043,1 52836U 22062G   23276.60691085 -.00000287  00000-0  74812-7 0  9998,2 52836  53.2177  60.8785 0001395  89.6863 270.4289 15.08831458 71714,6917.906,95.438,540.737,538.806,0.0
52836.0,STARLINK-4043,PAYLOAD,2023-10-03 16:09:20,15.08833962,0.0001619,53.2174,60.5797,93.6706,266.4472,4.8964e-06,-2.1e-06,0.0,0 STARLINK-4043,1 52836U 22062G   23276.67314932 -.00000210  00000-0  48964-5 0  9991,2 52836  53.2174  60.5797 0001619  93.6706 266.4472 15.08833962 71723,6917.899,95.438,540.884,538.644,0.0
52836.0,STARLINK-4043,PAYLOAD,2023-10-04 14:24:43,15.08842872,0.0001418,53.2179,56.417,100.5386,259.5766,0.00015589,2.194e-05,0.0,0 STARLINK-4043,1 52836U 22062G   23277.60050056  .00002194  00000-0  15589-3 0  9996,2 52836  53.2179  56.4170 0001418 100.5386 259.5766 15.08842872 71860,6917.872,95.437,540.718,538.756,0.0
52836.0,STARLINK-4043,PAYLOAD,2023-10-04 16:00:05,15.08856025,0.0001303,53.2171,56.1219,90.587,269.5272,0.00017685,2.529e-05,0.0,0 STARLINK-4043,1 52836U 22062G   23277.66673280  .00002529  00000-0  17685-3 0  9993,2 52836  53.2171  56.1219 0001303  90.5870 269.5272 15.08856025 71871,6917.831,95.437,540.598,538.795,0.0
52836.0,STARLINK-4043,PAYLOAD,2023-10-05 09:29:21,15.08837449,0.0001352,53.2182,52.8486,94.3867,265.7279,0.00013419,1.848e-05,0.0,0 STARLINK-4043,1 52836U 22062G   23278.39538633  .00001848  00000-0  13419-3 0  9990,2 52836  53.2182  52.8486 0001352  94.3867 265.7279 15.08837449 71980,6917.888,95.438,540.688,538.818,0.0
52836.0,STARLINK-4043,PAYLOAD,2023-10-05 14:15:30,15.08841204,0.0001507,53.2178,51.9568,99.1842,260.932,0.0001597,2.255e-05,0.0,0 STARLINK-4043,1 52836U 22062G   23278.59410625  .00002255  00000-0  15970-3 0  9999,2 52836  53.2178  51.9568 0001507  99.1842 260.9320 15.08841204 72017,6917.877,95.437,540.784,538.699,0.0
52836.0,STARLINK-4043,PAYLOAD,2023-10-05 15:50:53,15.08843488,0.0001446,53.2172,51.661,95.3838,264.7319,0.00021373,3.116e-05,0.0,0 STARLINK-4043,1 52836U 22062G   23278.66034599  .00003116  00000-0  21373-3 0  9990,2 52836  53.2172  51.6610 0001446  95.3838 264.7319 15.08843488 72028,6917.87,95.437,540.735,538.734,0.0
52836.0,STARLINK-4043,PAYLOAD,2023-10-06 14:06:18,15.0883465,0.0001603,53.2168,47.4988,87.7537,272.3638,-0.00017389,-3.054e-05,0.0,0 STARLINK-4043,1 52836U 22062G   23279.58771050 -.00003054  00000-0 -17389-3 0  9997,2 52836  53.2168  47.4988 0001603  87.7537 272.3638 15.08834650 72165,6917.897,95.438,540.871,538.653,0.0
52836.0,STARLINK-4043,PAYLOAD,2023-10-06 15:41:40,15.08843743,0.0001487,53.218,47.1999,78.5853,281.5306,-4.8278e-05,-1.056e-05,0.0,0 STARLINK-4043,1 52836U 22062G   23279.65394601 -.00001056  00000-0 -48278-4 0  9990,2 52836  53.2180  47.1999 0001487  78.5853 281.5306 15.08843743 72175,6917.869,95.437,540.763,538.705,0.0
52836.0,STARLINK-4043,PAYLOAD,2023-10-07 13:57:04,15.08845988,0.000162,53.2169,43.0376,101.747,258.3704,0.00022121,3.235e-05,0.0,0 STARLINK-4043,1 52836U 22062G   23280.58130768  .00003235  00000-0  22121-3 0  9993,2 52836  53.2169  43.0376 0001620 101.7470 258.3704 15.08845988 72312,6917.862,95.437,540.848,538.606,0.0
52836.0,STARLINK-4043,PAYLOAD,2023-10-07 17:07:51,15.08846351,0.0001645,53.2168,42.4444,88.2336,271.8845,0.00023274,3.419e-05,0.0,0 STARLINK-4043,1 52836U 22062G   23280.71378829  .00003419  00000-0  23274-3 0  9994,2 52836  53.2168  42.4444 0001645  88.2336 271.8845 15.08846351 72330,6917.861,95.437,540.864,538.588,0.0
52836.0,STARLINK-4043,PAYLOAD,2023-10-08 01:04:47,15.08834161,0.0002078,53.2179,40.9593,91.36,268.763,3.9689e-05,3.43e-06,0.0,0 STARLINK-4043,1 52836U 22062G   23281.04499563  .00000343  00000-0  39689-4 0  9991,2 52836  53.2179  40.9593 0002078  91.3600 268.7630 15.08834161 72388,6917.898,95.438,541.201,538.326,0.0
52836.0,STARLINK-4043,PAYLOAD,2023-10-08 13:47:52,15.08841388,0.0001447,53.2167,38.5776,106.4475,253.6677,0.00015271,2.143e-05,0.0,0 STARLINK-4043,1 52836U 22062G   23281.57491056  .00002143  00000-0  15271-3 0  9998,2 52836  53.2167  38.5776 0001447 106.4475 253.6677 15.08841388 72460,6917.876,95.437,540.742,538.74,0.0
52836.0,STARLINK-4043,PAYLOAD,2023-10-08 16:58:38,15.08844399,0.0001982,53.2182,37.9827,81.2155,278.9062,0.00014903,2.085e-05,0.0,0 STARLINK-4043,1 52836U 22062G   23281.70739147  .00002085  00000-0  14903-3 0  9995,2 52836  53.2182  37.9827 0001982  81.2155 278.9062 15.08844399 72481,6917.867,95.437,541.103,538.361,0.0
52836.0,STARLINK-4043,PAYLOAD,2023-10-09 13:38:39,15.0883534,0.0001727,53.2197,34.1183,72.8116,287.3065,6.7317e-05,7.83e-06,0.0,0 STARLINK-4043,1 52836U 22062G   23282.56851614  .00000783  00000-0  67317-4 0  9995,2 52836  53.2197  34.1183 0001727  72.8116 287.3065 15.08835340 72619,6917.895,95.438,540.954,538.565,0.0
52836.0,STARLINK-4043,PAYLOAD,2023-10-09 16:49:25,15.08855107,0.0001356,53.2184,33.5227,81.3259,278.7886,0.00013298,1.83e-05,0.0,0 STARLINK-4043,1 52836U 22062G   23282.70098423  .00001830  00000-0  13298-3 0  9994,2 52836  53.2184  33.5227 0001356  81.3259 278.7886 15.08855107 72638,6917.834,95.437,540.637,538.761,0.0
52836.0,STARLINK-4043,PAYLOAD,2023-10-10 07:07:53,15.08842662,0.0001275,53.2187,30.8474,87.9786,272.1352,0.00018049,2.586e-05,0.0,0 STARLINK-4043,1 52836U 22062G   23283.29715004  .00002586  00000-0  18049-3 0  9998,2 52836  53.2187  30.8474 0001275  87.9786 272.1352 15.08842662 72720,6917.872,95.437,540.619,538.855,0.0
52836.0,STARLINK-4043,PAYLOAD,2023-10-10 13:29:25,15.08854803,0.0001499,53.2177,29.6589,87.954,272.1623,0.00016982,2.417e-05,0.0,0 STARLINK-4043,1 52836U 22062G   23283.56210326  .00002417  00000-0  16982-3 0  9992,2 52836  53.2177  29.6589 0001499  87.9540 272.1623 15.08854803 72763,6917.835,95.437,540.737,538.663,0.0
52836.0,STARLINK-4043,PAYLOAD,2023-10-11 13:20:13,15.08841118,0.0001485,53.2186,25.195,91.1039,269.0123,-3.8611e-05,-9.02e-06,0.0,0 STARLINK-4043,1 52836U 22062G   23284.55571098 -.00000902  00000-0 -38611-4 0  9991,2 52836  53.2186  25.1950 0001485  91.1039 269.0123 15.08841118 72913,6917.877,95.437,540.769,538.715,0.0
